{
    "links": {
        "self": "http://www.neowsapp.com/rest/v1/neo/3461229?api_key=iIulBulltgU6a56xZRHN4H3l9WmuAYTsLGpBGhQ2"
    },
    "id": "3461229",
    "neo_reference_id": "3461229",
    "name": "(2009 KO4)",
    "designation": "2009 KO4",
    "nasa_jpl_url": "http://ssd.jpl.nasa.gov/sbdb.cgi?sstr=3461229",
    "absolute_magnitude_h": 24.4,
    "estimated_diameter": {
        "kilometers": {
            "estimated_diameter_min": 0.0350392641,
            "estimated_diameter_max": 0.0783501764
        },
        "meters": {
            "estimated_diameter_min": 35.0392641108,
            "estimated_diameter_max": 78.3501764334
        },
        "miles": {
            "estimated_diameter_min": 0.0217723826,
            "estimated_diameter_max": 0.0486845275
        },
        "feet": {
            "estimated_diameter_min": 114.9582192654,
            "estimated_diameter_max": 257.0543928497
        }
    },
    "is_potentially_hazardous_asteroid": false,
    "close_approach_data": [
        {
            "close_approach_date": "1935-06-18",
            "close_approach_date_full": "1935-Jun-18 00:28",
            "epoch_date_close_approach": -1090020720000,
            "relative_velocity": {
                "kilometers_per_second": "9.8785892607",
                "kilometers_per_hour": "35562.9213383877",
                "miles_per_hour": "22097.4163171776"
            },
            "miss_distance": {
                "astronomical": "0.3751409727",
                "lunar": "145.9298383803",
                "kilometers": "56120290.465648149",
                "miles": "34871531.4809524962"
            },
            "orbiting_body": "Earth"
        },
        {
            "close_approach_date": "2009-06-07",
            "close_approach_date_full": "2009-Jun-07 09:00",
            "epoch_date_close_approach": 1244365200000,
            "relative_velocity": {
                "kilometers_per_second": "6.3478758291",
                "kilometers_per_hour": "22852.3529847132",
                "miles_per_hour": "14199.5634420847"
            },
            "miss_distance": {
                "astronomical": "0.0789328136",
                "lunar": "30.7048644904",
                "kilometers": "11808180.787667032",
                "miles": "7337263.3080357616"
            },
            "orbiting_body": "Earth"
        }
    ],
    "orbital_data": {
        "orbit_id": "11",
        "orbit_determination_date": "2017-04-06 09:00:32",
        "first_observation_date": "2009-05-24",
        "last_observation_date": "2009-07-13",
        "data_arc_in_days": 50,
        "observations_used": 44,
        "orbit_uncertainty": "6",
        "minimum_orbit_intersection": ".076359",
        "jupiter_tisserand_invariant": "3.260",
        "epoch_osculation": "2459000.5",
        "eccentricity": ".5577353085878678",
        "semi_major_axis": "2.453089968891153",
        "inclination": "2.036950884146141",
        "ascending_node_longitude": "127.9634566577929",
        "orbital_period": "1403.358539624643",
        "perihelion_distance": "1.084915078097843",
        "perihelion_argument": "125.4739036064451",
        "aphelion_distance": "3.821264859684464",
        "perihelion_time": "2459196.264751999678",
        "mean_anomaly": "309.7809656406593",
        "mean_motion": ".2565274588319315",
        "equinox": "J2000",
        "orbit_class": {
            "orbit_class_type": "AMO",
            "orbit_class_description": "Near-Earth asteroid orbits similar to that of 1221 Amor",
            "orbit_class_range": "1.017 AU < q (perihelion) < 1.3 AU"
        }
    },
    "is_sentry_object": false
}